start=new Date('2022-03-23T00:00:00.000Z').valueOf();
sats=[{"FILE":"3370190","MEAN_MOTION":"15.06400354","TLE_LINE2":"2 46554  53.0532 182.3417 0001432  74.5245 285.5902 15.06400354 81454","RA_OF_ASC_NODE":"182.3417","PERIOD":"95.592","SEMIMAJOR_AXIS":"6925.347","INCLINATION":"53.0532","ELEMENT_SET_NO":"999","ECCENTRICITY":"0.00014320","OBJECT_NAME":"STARLINK-1671","LAUNCH_DATE":"2020-10-06","BSTAR":"0.00002013300000","NORAD_CAT_ID":"46554","TIME_SYSTEM":"UTC","RCS_SIZE":"LARGE","EPOCH":"2022-03-22T14:23:05.893728","CENTER_NAME":"EARTH","PERIAPSIS":"546.221","DECAY_DATE":null,"GP_ID":"199428395","SITE":"AFETR","REF_FRAME":"TEME","REV_AT_EPOCH":"8145","OBJECT_ID":"2020-070Y","ARG_OF_PERICENTER":"74.5245","MEAN_MOTION_DOT":"0.00000018","OBJECT_TYPE":"PAYLOAD","MEAN_ANOMALY":"285.5902","MEAN_MOTION_DDOT":"0.0000000000000","TLE_LINE1":"1 46554U 20070Y   22081.59937377  .00000018  00000-0  20133-4 0  9998","CLASSIFICATION_TYPE":"U","APOAPSIS":"548.204","COUNTRY_CODE":"US","EPHEMERIS_TYPE":"0","MEAN_ELEMENT_THEORY":"SGP4"},{"MEAN_MOTION":"15.06409332","FILE":"3369829","RA_OF_ASC_NODE":"197.3859","TLE_LINE2":"2 46556  53.0531 197.3859 0001387  64.5334 295.5798 15.06409332 81244","OBJECT_NAME":"STARLINK-1676","ECCENTRICITY":"0.00013870","PERIOD":"95.592","ELEMENT_SET_NO":"999","INCLINATION":"53.0531","SEMIMAJOR_AXIS":"6925.320","NORAD_CAT_ID":"46556","TIME_SYSTEM":"UTC","RCS_SIZE":"LARGE","BSTAR":"0.00000644070000","LAUNCH_DATE":"2020-10-06","CENTER_NAME":"EARTH","EPOCH":"2022-03-22T14:13:08.793696","PERIAPSIS":"546.224","GP_ID":"199395885","SITE":"AFETR","DECAY_DATE":null,"ARG_OF_PERICENTER":"64.5334","MEAN_MOTION_DOT":"-0.00000186","OBJECT_ID":"2020-070AA","REF_FRAME":"TEME","REV_AT_EPOCH":"8124","TLE_LINE1":"1 46556U 20070AA  22081.59246289 -.00000186  00000-0  64407-5 0  9995","CLASSIFICATION_TYPE":"U","MEAN_MOTION_DDOT":"0.0000000000000","MEAN_ANOMALY":"295.5798","APOAPSIS":"548.145","OBJECT_TYPE":"PAYLOAD","MEAN_ELEMENT_THEORY":"SGP4","COUNTRY_CODE":"US","EPHEMERIS_TYPE":"0"},{"TLE_LINE1":"1 46557U 20070AB  22081.56989636 -.00001756  00000-0 -99071-4 0  9992","CLASSIFICATION_TYPE":"U","MEAN_ANOMALY":"286.8161","MEAN_MOTION_DDOT":"0.0000000000000","APOAPSIS":"548.196","OBJECT_TYPE":"PAYLOAD","MEAN_ELEMENT_THEORY":"SGP4","COUNTRY_CODE":"US","EPHEMERIS_TYPE":"0","GP_ID":"199396630","SITE":"AFETR","DECAY_DATE":null,"MEAN_MOTION_DOT":"-0.00001756","ARG_OF_PERICENTER":"73.2979","OBJECT_ID":"2020-070AB","REV_AT_EPOCH":"8145","REF_FRAME":"TEME","NORAD_CAT_ID":"46557","TIME_SYSTEM":"UTC","RCS_SIZE":"LARGE","BSTAR":"-0.00009907100000","LAUNCH_DATE":"2020-10-06","CENTER_NAME":"EARTH","EPOCH":"2022-03-22T13:40:39.045504","PERIAPSIS":"546.295","MEAN_MOTION":"15.06389537","FILE":"3369829","RA_OF_ASC_NODE":"182.4862","TLE_LINE2":"2 46557  53.0553 182.4862 0001372  73.2979 286.8161 15.06389537 81458","ECCENTRICITY":"0.00013720","OBJECT_NAME":"STARLINK-1679","PERIOD":"95.593","INCLINATION":"53.0553","ELEMENT_SET_NO":"999","SEMIMAJOR_AXIS":"6925.381"},{"TIME_SYSTEM":"UTC","RCS_SIZE":"LARGE","NORAD_CAT_ID":"46558","LAUNCH_DATE":"2020-10-06","BSTAR":"-0.00009558000000","PERIAPSIS":"546.196","EPOCH":"2022-03-22T18:37:53.288544","CENTER_NAME":"EARTH","TLE_LINE2":"2 46558  53.0537 181.5441 0001505  67.1612 292.9536 15.06392038 81452","RA_OF_ASC_NODE":"181.5441","FILE":"3370190","MEAN_MOTION":"15.06392038","OBJECT_NAME":"STARLINK-1680","ECCENTRICITY":"0.00015050","SEMIMAJOR_AXIS":"6925.373","INCLINATION":"53.0537","ELEMENT_SET_NO":"999","PERIOD":"95.593","APOAPSIS":"548.280","MEAN_MOTION_DDOT":"0.0000000000000","MEAN_ANOMALY":"292.9536","TLE_LINE1":"1 46558U 20070AC  22081.77631121 -.00001705  00000-0 -95580-4 0  9994","CLASSIFICATION_TYPE":"U","OBJECT_TYPE":"PAYLOAD","MEAN_ELEMENT_THEORY":"SGP4","EPHEMERIS_TYPE":"0","COUNTRY_CODE":"US","SITE":"AFETR","GP_ID":"199428147","DECAY_DATE":null,"OBJECT_ID":"2020-070AC","ARG_OF_PERICENTER":"67.1612","MEAN_MOTION_DOT":"-0.00001705","REF_FRAME":"TEME","REV_AT_EPOCH":"8145"},{"RCS_SIZE":"LARGE","TIME_SYSTEM":"UTC","NORAD_CAT_ID":"46559","BSTAR":"0.00008217100000","LAUNCH_DATE":"2020-10-06","PERIAPSIS":"546.465","CENTER_NAME":"EARTH","EPOCH":"2022-03-22T15:10:12.467136","RA_OF_ASC_NODE":"167.1988","TLE_LINE2":"2 46559  53.0533 167.1988 0001075  35.6629 324.4431 15.06401336 81665","MEAN_MOTION":"15.06401336","FILE":"3370190","ECCENTRICITY":"0.00010750","OBJECT_NAME":"STARLINK-1681","ELEMENT_SET_NO":"999","INCLINATION":"53.0533","SEMIMAJOR_AXIS":"6925.344","PERIOD":"95.592","APOAPSIS":"547.954","CLASSIFICATION_TYPE":"U","TLE_LINE1":"1 46559U 20070AD  22081.63208874  .00000943  00000-0  82171-4 0  9998","MEAN_MOTION_DDOT":"0.0000000000000","MEAN_ANOMALY":"324.4431","OBJECT_TYPE":"PAYLOAD","MEAN_ELEMENT_THEORY":"SGP4","EPHEMERIS_TYPE":"0","COUNTRY_CODE":"US","SITE":"AFETR","GP_ID":"199428896","DECAY_DATE":null,"ARG_OF_PERICENTER":"35.6629","MEAN_MOTION_DOT":"0.00000943","OBJECT_ID":"2020-070AD","REV_AT_EPOCH":"8166","REF_FRAME":"TEME"},{"ARG_OF_PERICENTER":"71.5834","MEAN_MOTION_DOT":"0.00001000","OBJECT_ID":"2020-070AE","REF_FRAME":"TEME","REV_AT_EPOCH":"8143","SITE":"AFETR","GP_ID":"199396380","DECAY_DATE":null,"MEAN_ELEMENT_THEORY":"SGP4","EPHEMERIS_TYPE":"0","COUNTRY_CODE":"US","APOAPSIS":"548.308","TLE_LINE1":"1 46560U 20070AE  22081.45931023  .00001000  00000-0  86041-4 0  9994","CLASSIFICATION_TYPE":"U","MEAN_ANOMALY":"288.5326","MEAN_MOTION_DDOT":"0.0000000000000","OBJECT_TYPE":"PAYLOAD","ECCENTRICITY":"0.00015740","OBJECT_NAME":"STARLINK-1706","ELEMENT_SET_NO":"999","INCLINATION":"53.0521","SEMIMAJOR_AXIS":"6925.353","PERIOD":"95.592","RA_OF_ASC_NODE":"182.9721","TLE_LINE2":"2 46560  53.0521 182.9721 0001574  71.5834 288.5326 15.06398509 81430","MEAN_MOTION":"15.06398509","FILE":"3369829","PERIAPSIS":"546.128","CENTER_NAME":"EARTH","EPOCH":"2022-03-22T11:01:24.403872","RCS_SIZE":"LARGE","TIME_SYSTEM":"UTC","NORAD_CAT_ID":"46560","BSTAR":"0.00008604100000","LAUNCH_DATE":"2020-10-06"},{"SITE":"AFETR","GP_ID":"199427898","DECAY_DATE":null,"OBJECT_ID":"2020-070AF","ARG_OF_PERICENTER":"70.3603","MEAN_MOTION_DOT":"-0.00001080","REV_AT_EPOCH":"8147","REF_FRAME":"TEME","APOAPSIS":"548.217","MEAN_ANOMALY":"289.7542","MEAN_MOTION_DDOT":"0.0000000000000","CLASSIFICATION_TYPE":"U","TLE_LINE1":"1 46561U 20070AF  22081.73944722 -.00001080  00000-0 -53632-4 0  9996","OBJECT_TYPE":"PAYLOAD","MEAN_ELEMENT_THEORY":"SGP4","EPHEMERIS_TYPE":"0","COUNTRY_CODE":"US","TLE_LINE2":"2 46561  53.0549 181.7308 0001445  70.3603 289.7542 15.06399024 81477","RA_OF_ASC_NODE":"181.7308","FILE":"3370190","MEAN_MOTION":"15.06399024","OBJECT_NAME":"STARLINK-1709","ECCENTRICITY":"0.00014450","SEMIMAJOR_AXIS":"6925.352","INCLINATION":"53.0549","ELEMENT_SET_NO":"999","PERIOD":"95.592","RCS_SIZE":"LARGE","TIME_SYSTEM":"UTC","NORAD_CAT_ID":"46561","LAUNCH_DATE":"2020-10-06","BSTAR":"-0.00005363200000","PERIAPSIS":"546.216","EPOCH":"2022-03-22T17:44:48.239808","CENTER_NAME":"EARTH"},{"PERIAPSIS":"546.325","CENTER_NAME":"EARTH","EPOCH":"2022-03-22T13:01:30.753984","BSTAR":"0.00000198900000","LAUNCH_DATE":"2020-10-06","RCS_SIZE":"LARGE","TIME_SYSTEM":"UTC","NORAD_CAT_ID":"46562","INCLINATION":"53.0550","ELEMENT_SET_NO":"999","SEMIMAJOR_AXIS":"6925.381","PERIOD":"95.593","OBJECT_NAME":"STARLINK-1714","ECCENTRICITY":"0.00013300","RA_OF_ASC_NODE":"177.6104","TLE_LINE2":"2 46562  53.0550 177.6104 0001330  76.7172 283.3966 15.06389536 81514","MEAN_MOTION":"15.06389536","FILE":"3369829","EPHEMERIS_TYPE":"0","COUNTRY_CODE":"US","MEAN_ELEMENT_THEORY":"SGP4","OBJECT_TYPE":"PAYLOAD","APOAPSIS":"548.167","CLASSIFICATION_TYPE":"U","TLE_LINE1":"1 46562U 20070AG  22081.54271706 -.00000252  00000-0  19890-5 0  9999","MEAN_ANOMALY":"283.3966","MEAN_MOTION_DDOT":"0.0000000000000","REV_AT_EPOCH":"8151","REF_FRAME":"TEME","ARG_OF_PERICENTER":"76.7172","MEAN_MOTION_DOT":"-0.00000252","OBJECT_ID":"2020-070AG","DECAY_DATE":null,"SITE":"AFETR","GP_ID":"199395379"},{"COUNTRY_CODE":"US","EPHEMERIS_TYPE":"0","MEAN_ELEMENT_THEORY":"SGP4","OBJECT_TYPE":"PAYLOAD","TLE_LINE1":"1 46563U 20070AH  22081.72333110  .00003706  00000-0  26753-3 0  9998","CLASSIFICATION_TYPE":"U","MEAN_ANOMALY":"296.4524","MEAN_MOTION_DDOT":"0.0000000000000","APOAPSIS":"548.297","REV_AT_EPOCH":"8154","REF_FRAME":"TEME","MEAN_MOTION_DOT":"0.00003706","ARG_OF_PERICENTER":"63.6628","OBJECT_ID":"2020-070AH","DECAY_DATE":null,"GP_ID":"199428396","SITE":"AFETR","CENTER_NAME":"EARTH","EPOCH":"2022-03-22T17:21:35.807040","PERIAPSIS":"546.089","BSTAR":"0.00026753000000","LAUNCH_DATE":"2020-10-06","NORAD_CAT_ID":"46563","TIME_SYSTEM":"UTC","RCS_SIZE":"LARGE","PERIOD":"95.592","INCLINATION":"53.0544","ELEMENT_SET_NO":"999","SEMIMAJOR_AXIS":"6925.328","ECCENTRICITY":"0.00015940","OBJECT_NAME":"STARLINK-1730","MEAN_MOTION":"15.06406643","FILE":"3370190","RA_OF_ASC_NODE":"176.7883","TLE_LINE2":"2 46563  53.0544 176.7883 0001594  63.6628 296.4524 15.06406643 81542"},{"MEAN_ELEMENT_THEORY":"SGP4","EPHEMERIS_TYPE":"0","COUNTRY_CODE":"US","APOAPSIS":"548.169","TLE_LINE1":"1 46564U 20070AJ  22081.77125165 -.00001712  00000-0 -96119-4 0  9994","CLASSIFICATION_TYPE":"U","MEAN_ANOMALY":"287.8505","MEAN_MOTION_DDOT":"0.0000000000000","OBJECT_TYPE":"PAYLOAD","MEAN_MOTION_DOT":"-0.00001712","ARG_OF_PERICENTER":"72.2628","OBJECT_ID":"2020-070AJ","REV_AT_EPOCH":"8155","REF_FRAME":"TEME","SITE":"AFETR","GP_ID":"199429147","DECAY_DATE":null,"PERIAPSIS":"546.330","CENTER_NAME":"EARTH","EPOCH":"2022-03-22T18:30:36.142560","RCS_SIZE":"LARGE","TIME_SYSTEM":"UTC","NORAD_CAT_ID":"46564","BSTAR":"-0.00009611900000","LAUNCH_DATE":"2020-10-06","OBJECT_NAME":"STARLINK-1733","ECCENTRICITY":"0.00013280","ELEMENT_SET_NO":"999","INCLINATION":"53.0532","SEMIMAJOR_AXIS":"6925.384","PERIOD":"95.593","RA_OF_ASC_NODE":"176.5830","TLE_LINE2":"2 46564  53.0532 176.5830 0001328  72.2628 287.8505 15.06388347 81555","MEAN_MOTION":"15.06388347","FILE":"3370190"}];
